ES'HAIL 2               
1 43700U 18090A   23353.48590913  .00000153  00000+0  00000+0 0  9994
2 43700   0.0179  15.6253 0001951 287.4254 345.4990  1.00269768 18544
FOX-1CLIFF (AO-95)      
1 43770U 18099N   23352.14580589  .00007150  00000+0  54231-3 0  9993
2 43770  97.5741  49.0880 0012499 260.5340  99.4473 15.02470773275208
ITASAT                  
1 43786U 18099AE  23353.15298901  .00005936  00000+0  46118-3 0  9991
2 43786  97.5435  50.6458 0017043 234.1331 125.8311 15.01572294275385
JY1SAT (JO-97)          
1 43803U 18099AX  23353.16894383  .00008543  00000+0  62731-3 0  9994
2 43803  97.5496  51.1354 0010483 191.7961 168.3021 15.03655475275465
UWE-4                   
1 43880U 18111E   23353.29626326  .00011247  00000+0  78712-3 0  9999
2 43880  97.6214 255.8120 0016222 266.1197  93.8175 15.05324669272186
JAISAT-1                
1 44419U 19038F   23353.47949014  .00059294  00000+0  12763-2 0  9996
2 44419  97.6846 343.2079 0012175  15.3117 344.8496 15.44349650246984
DUCHIFAT-3              
1 44854U 19089C   23353.52179349  .00012820  00000+0  76791-3 0  9993
2 44854  36.9608  60.4290 0006946  50.3448 309.7909 15.10402852220895
TIANYAN 01              
1 44881U 19093C   23353.53411126  .00001410  00000+0  17937-3 0  9991
2 44881  97.8476  68.7437 0014351 188.1388 171.9595 14.83084707216260
RS-44 & BREEZE-KM R/B   
1 44909U 19096E   23353.59169856  .00000009  00000+0 -15857-4 0  9995
2 44909  82.5213 224.7429 0218363 113.3861 249.0371 12.79724617185876
BY70-2                  
1 45857U 20042B   23353.58724750  .00041884  00000+0  32088-2 0  9998
2 45857  97.9222  75.3516 0006295 106.8091 253.3824 15.01689413187243
SALSAT                  
1 46495U 20068K   23353.41765098  .00007783  00000+0  48078-3 0  9994
2 46495  97.7945 303.8964 0013700 204.5531 155.5046 15.10091228177005
RADFXSAT-2 (AO-109)     
1 47311U 21002C   23353.55760217  .00063881  00000+0  89560-3 0  9996
2 47311  60.6756  58.4586 0026846  44.2429 316.0814 15.55906363162943
UVSQ-SAT                
1 47438U 21006AB  23353.10472506  .00027872  00000+0  88665-3 0  9997
2 47438  97.3587  48.2309 0008997 139.8881 220.3027 15.32524836160882
LEDSAT                  
1 49069U 21073D   23353.18525142  .00013538  00000+0  65496-3 0  9997
2 49069  97.4624  61.2312 0021420 194.8779 165.1828 15.18508399128934
XW-3 (CAS-9)            
1 50466U 21131B   23353.53494504  .00000782  00000+0  26644-3 0  9990
2 50466  98.5416  74.4354 0003294 315.7094  44.3829 14.39248295104013
TEVEL-3                 
1 50988U 22002E   23353.47385125  .00043744  00000+0  12283-2 0  9996
2 50988  97.4099  60.2399 0005077 301.8479  58.2271 15.36403013107098
TEVEL-8                 
1 50989U 22002F   23353.56685060  .00041450  00000+0  11674-2 0  9993
2 50989  97.4115  60.4121 0004950 299.8243  60.2509 15.36322384107107
TEVEL-5                 
1 50998U 22002Q   23353.55032233  .00046497  00000+0  12445-2 0  9993
2 50998  97.4092  60.9883 0005827 292.1863  67.8763 15.37874911107158
TEVEL-6                 
1 50999U 22002R   23353.54965172  .00046770  00000+0  12525-2 0  9993
2 50999  97.4091  60.9764 0005841 291.7466  68.3157 15.37856270107157
TEVEL-1                 
1 51013U 22002AF  23353.55586028  .00042660  00000+0  12007-2 0  9990
2 51013  97.4089  60.2288 0004846 300.8479  59.2288 15.36336197107105
TEVEL-7                 
1 51062U 22002CG  23353.56418170  .00041812  00000+0  11757-2 0  9996
2 51062  97.4110  60.3796 0004981 299.7520  60.3228 15.36370321107106
TEVEL-4                 
1 51063U 22002CH  23353.44956806  .00044424  00000+0  12538-2 0  9997
2 51063  97.4110  60.2204 0004860 300.0887  59.9875 15.36240338107081
TEVEL-2                 
1 51069U 22002CP  23353.53965668  .00043820  00000+0  12295-2 0  9998
2 51069  97.4097  60.2734 0005027 301.2339  58.8412 15.36426597107101
GREENCUBE               
1 53106U 22080B   23353.26709400 -.00000003  00000+0  00000+0 0  9993
2 53106  70.1425 255.3862 0008213 145.5074 214.6119  6.42557317 33647
CYCLOPS (RS29S)         
1 53373U 22096D   23353.59533304  .00120359  00000+0  13315-2 0  9992
2 53373  97.3977 264.3495 0004051  79.9527 280.2188 15.62611712 76371
MONITOR-1 (RS32S)       
1 53374U 22096E   23353.57409618  .00099392  00000+0  12468-2 0  9991
2 53374  97.3922 263.6295 0003562  91.8844 268.2821 15.59397793 76335
KUZBASS-300 (RS34S)     
1 53375U 22096F   23353.56470797  .00054176  00000+0  93537-3 0  9995
2 53375  97.3998 262.2688 0002896  94.8098 265.3484 15.50828611 76234
UTMN (RS23S)            
1 53376U 22096G   23353.59887234  .00064559  00000+0  10392-2 0  9990
2 53376  97.3975 262.6556 0002805  83.6755 276.4817 15.52752640 76260
MIET-AIS (RS28S)        
1 53377U 22096H   23353.56538594  .00048768  00000+0  89847-3 0  9996
2 53377  97.4016 261.9967 0002649  91.1055 269.0499 15.49005942 76210
KAI-1 (RS26S)           
1 53378U 22096J   23353.55327146  .00042051  00000+0  88057-3 0  9996
2 53378  97.4043 261.1580 0002300  88.4165 271.7347 15.45320236 76156
ISOI (RS19S)            
1 53381U 22096M   23353.58727235  .00047220  00000+0  83247-3 0  9995
2 53381  97.4015 262.5410 0004696  89.3437 270.8352 15.50261816 76259
CUBESX-HSE-2 (RS21S)    
1 53383U 22096P   23353.55828142  .00061732  00000+0  10007-2 0  9990
2 53383  97.3984 262.8816 0005818  89.4181 270.7739 15.52554555 76279
SIREN (RS30S)           
1 53384U 22096Q   23353.57883898  .00045081  00000+0  86616-3 0  9991
2 53384  97.4018 261.9954 0004880  89.2111 270.9698 15.47805933 76214
GEOSCAN-EDELVEIS (RS20S)
1 53385U 22096R   23353.55256004  .00146995  00000+0  13639-2 0  9993
2 53385  97.3958 265.4227 0006789  79.6126 280.5899 15.66968951 76477
CAS-5A (FO-118)         
1 54684U 22167C   23353.59173160  .00018993  00000+0  87624-3 0  9992
2 54684  97.5831 130.9428 0012582  57.2746 302.9700 15.20213934 56785
STRATOSAT-TK 1 (RS52S)  
1 57167U 23091B   23353.56462205  .00012558  00000+0  84385-3 0  9998
2 57167  97.6404  42.6798 0017369  20.5234 339.6687 15.06793265 26314
UMKA 1 (RS40S)          
1 57172U 23091G   23353.57228308  .00005702  00000+0  40358-3 0  9994
2 57172  97.6397  42.5159 0018003  20.3871 339.8070 15.05108524 26306
CUBESX-HSE 3 (RS42S)    
1 57178U 23091N   23353.56344399  .00008341  00000+0  58126-3 0  9992
2 57178  97.6440  42.6121 0018706  14.9444 345.2331 15.05537716 26306
MONITOR-4 (RS57S)       
1 57182U 23091S   23353.57731179  .00006386  00000+0  44876-3 0  9998
2 57182  97.6422  42.5688 0019007  16.2033 343.9797 15.05315406 26303
MONITOR-2 (RS39S)       
1 57184U 23091U   23353.57135168  .00005257  00000+0  36832-3 0  9995
2 57184  97.6429  42.7390 0014984  10.7892 349.3653 15.05562548 26318
SVYATOBOR 1 (RS60S)     
1 57187U 23091X   23353.59067784  .00005886  00000+0  40413-3 0  9996
2 57187  97.6442  42.8698 0014617  10.6669 349.4865 15.06275105 26320
VIZARD-METEO (RS38S)    
1 57189U 23091Z   23353.53502263  .00008066  00000+0  54168-3 0  9993
2 57189  97.6437  42.9259 0013576   9.7932 350.3557 15.06992535 26327
NANOZOND 1 (RS49S)      
1 57190U 23091AA  23353.53993897  .00011307  00000+0  73689-3 0  9993
2 57190  97.6412  43.0117 0012297  15.6177 344.5428 15.08016878 26335
POLYTECH-UNIVERSE 3 (R*)
1 57191U 23091AB  23353.56163367  .00005700  00000+0  39975-3 0  9998
2 57191  97.6401  42.5254 0020961  26.1572 334.0708 15.05401705 26309
UTMN 2 (RS27S)          
1 57203U 23091AP  23353.61743444  .00007739  00000+0  52310-3 0  9990
2 57203  97.6438  42.9696 0013879   8.4391 351.7067 15.06762326 26336
ARCCUBE 1 (RS25S)       
1 57205U 23091AR  23353.59585882  .00012116  00000+0  78256-3 0  9991
2 57205  97.6390  43.0521 0012656  16.8328 343.3318 15.08324064 26341
KUZGTU 1 (RS47S)        
1 57217U 23091AV  23353.56188961  .00008214  00000+0  57307-3 0  9996
2 57217  97.6416  42.5585 0018634  16.2838 343.8983 15.05500309 26303
